*******************************************************************************
Ephemeris / WWW_USER Mon Mar 24 11:00:52 2025 Pasadena, USA      / Horizons    
*******************************************************************************
Target body name: (2018 TZ5)                      {source: JPL#13}
Center body name: Earth (399)                     {source: DE441}
Center-site name: Mauna Kea
*******************************************************************************
Start time      : A.D. 2018-Aug-22 04:55:00.0000 UT      
Stop  time      : A.D. 2018-Aug-22 15:54:00.0000 UT      
Step-size       : 1 minutes
*******************************************************************************
Target pole/equ : undefined
Target radii    : undefined                                                    
Center geodetic : 204.5278, 19.8260847, 4.21024   {E-lon(deg),Lat(deg),Alt(km)}
Center cylindric: 204.5278, 6006.35451, 2151.0229 {E-lon(deg),Dxy(km),Dz(km)}
Center pole/equ : ITRF93                          {East-longitude positive}
Center radii    : 6378.137, 6378.137, 6356.752 km {Equator_a, b, pole_c}       
Target primary  : Sun
Vis. interferer : MOON (R_eq= 1737.400) km        {source: DE441}
Rel. light bend : Sun                             {source: DE441}
Rel. lght bnd GM: 1.3271E+11 km^3/s^2                                          
Small-body perts: Yes                             {source: SB441-N16}
Atmos refraction: NO (AIRLESS)
RA format       : HMS
Time format     : CAL 
Calendar mode   : Mixed Julian/Gregorian
RTS-only print  : NO       
EOP file        : eop.250321.p250617                                           
EOP coverage    : DATA-BASED 1962-JAN-20 TO 2025-MAR-21. PREDICTS-> 2025-JUN-16
Units conversion: 1 au= 149597870.700 km, c= 299792.458 km/s, 1 day= 86400.0 s 
Table cut-offs 1: Elevation (-90.0deg=NO ),Airmass (>38.000=NO), Daylight (YES)
Table cut-offs 2: Solar elongation (  0.0,180.0=NO ),Local Hour Angle( 0.0=NO )
Table cut-offs 3: RA/DEC angular rate (     0.0=NO )                           
*******************************************************************************
Initial IAU76/J2000 heliocentric ecliptic osculating elements (au, days, deg.):
  EPOCH=  2458421.5 ! 2018-Oct-30.00 (TDB)         Residual RMS= .3052         
   EC= .5505022016549632   QR= .8932716909804733   TP= 2458367.6074299323      
   OM= 132.9772150011661   W=  197.0626448515302   IN= 1.165364587967566       
  Equivalent ICRF heliocentric cartesian coordinates (au, au/d):
   X= 9.139681807821705E-01  Y= 6.232256283970929E-01  Z= 2.452583568287751E-01
  VX=-4.619682259947144E-03 VY= 1.729028462648113E-02 VZ= 7.287606215643615E-03
Asteroid physical parameters (km, seconds, rotational period in hours):        
   GM= n.a.                RAD= n.a.               ROTPER= n.a.                
   H= 24.4                 G= .150                 B-V= n.a.                   
                           ALBEDO= n.a.            STYP= n.a.                  
*******************************************************************************
 Date__(UT)__HR:MN     R.A._________(ICRF)_________DEC
******************************************************
$$SOE
 2018-Aug-22 06:58  m  14 03 39.268356 -12 15 35.80195
 2018-Aug-22 06:59  m  14 03 39.327144 -12 15 36.29429
 2018-Aug-22 07:00  m  14 03 39.385961 -12 15 36.78660
 2018-Aug-22 07:01  m  14 03 39.444806 -12 15 37.27887
 2018-Aug-22 07:02  m  14 03 39.503680 -12 15 37.77112
 2018-Aug-22 07:03  m  14 03 39.562583 -12 15 38.26333
 2018-Aug-22 07:04  m  14 03 39.621515 -12 15 38.75551
 2018-Aug-22 07:05  m  14 03 39.680476 -12 15 39.24766
 2018-Aug-22 07:06  m  14 03 39.739466 -12 15 39.73978
 2018-Aug-22 07:07  m  14 03 39.798485 -12 15 40.23188
 2018-Aug-22 07:08  m  14 03 39.857534 -12 15 40.72394
 2018-Aug-22 07:09  m  14 03 39.916611 -12 15 41.21597
 2018-Aug-22 07:10  m  14 03 39.975717 -12 15 41.70798
 2018-Aug-22 07:11  m  14 03 40.034853 -12 15 42.19995
 2018-Aug-22 07:12  m  14 03 40.094018 -12 15 42.69190
 2018-Aug-22 07:13  m  14 03 40.153213 -12 15 43.18383
 2018-Aug-22 07:14  m  14 03 40.212436 -12 15 43.67572
 2018-Aug-22 07:15  m  14 03 40.271689 -12 15 44.16759
 2018-Aug-22 07:16  m  14 03 40.330972 -12 15 44.65943
 2018-Aug-22 07:17  m  14 03 40.390284 -12 15 45.15125
 2018-Aug-22 07:18  m  14 03 40.449626 -12 15 45.64304
 2018-Aug-22 07:19  m  14 03 40.508997 -12 15 46.13481
 2018-Aug-22 07:20  m  14 03 40.568398 -12 15 46.62655
 2018-Aug-22 07:21  m  14 03 40.627828 -12 15 47.11827
 2018-Aug-22 07:22  m  14 03 40.687289 -12 15 47.60997
 2018-Aug-22 07:23  m  14 03 40.746778 -12 15 48.10164
 2018-Aug-22 07:24  m  14 03 40.806298 -12 15 48.59329
 2018-Aug-22 07:25  m  14 03 40.865848 -12 15 49.08491
 2018-Aug-22 07:26  m  14 03 40.925427 -12 15 49.57652
 2018-Aug-22 07:27  m  14 03 40.985036 -12 15 50.06810
 2018-Aug-22 07:28  m  14 03 41.044675 -12 15 50.55966
 2018-Aug-22 07:29  m  14 03 41.104344 -12 15 51.05121
 2018-Aug-22 07:30  m  14 03 41.164043 -12 15 51.54273
 2018-Aug-22 07:31  m  14 03 41.223772 -12 15 52.03423
 2018-Aug-22 07:32  m  14 03 41.283532 -12 15 52.52571
 2018-Aug-22 07:33  m  14 03 41.343321 -12 15 53.01717
 2018-Aug-22 07:34  m  14 03 41.403140 -12 15 53.50862
 2018-Aug-22 07:35  m  14 03 41.462989 -12 15 54.00004
 2018-Aug-22 07:36  m  14 03 41.522869 -12 15 54.49145
 2018-Aug-22 07:37  m  14 03 41.582779 -12 15 54.98284
 2018-Aug-22 07:38  m  14 03 41.642719 -12 15 55.47421
 2018-Aug-22 07:39  m  14 03 41.702689 -12 15 55.96557
 2018-Aug-22 07:40  m  14 03 41.762690 -12 15 56.45691
 2018-Aug-22 07:41  m  14 03 41.822721 -12 15 56.94823
 2018-Aug-22 07:42  m  14 03 41.882782 -12 15 57.43954
 2018-Aug-22 07:43  m  14 03 41.942874 -12 15 57.93084
 2018-Aug-22 07:44  m  14 03 42.002996 -12 15 58.42212
 2018-Aug-22 07:45  m  14 03 42.063148 -12 15 58.91338
 2018-Aug-22 07:46  m  14 03 42.123331 -12 15 59.40463
 2018-Aug-22 07:47  m  14 03 42.183544 -12 15 59.89587
 2018-Aug-22 07:48  m  14 03 42.243788 -12 16 00.38710
 2018-Aug-22 07:49  m  14 03 42.304062 -12 16 00.87831
 2018-Aug-22 07:50  m  14 03 42.364367 -12 16 01.36951
 2018-Aug-22 07:51  m  14 03 42.424703 -12 16 01.86070
 2018-Aug-22 07:52  m  14 03 42.485069 -12 16 02.35188
 2018-Aug-22 07:53  m  14 03 42.545465 -12 16 02.84305
 2018-Aug-22 07:54  m  14 03 42.605892 -12 16 03.33421
 2018-Aug-22 07:55  m  14 03 42.666350 -12 16 03.82535
 2018-Aug-22 07:56  m  14 03 42.726839 -12 16 04.31649
 2018-Aug-22 07:57  m  14 03 42.787358 -12 16 04.80762
 2018-Aug-22 07:58  m  14 03 42.847908 -12 16 05.29874
 2018-Aug-22 07:59  m  14 03 42.908488 -12 16 05.78985
 2018-Aug-22 08:00  m  14 03 42.969100 -12 16 06.28095
 2018-Aug-22 08:01  m  14 03 43.029742 -12 16 06.77205
 2018-Aug-22 08:02  m  14 03 43.090414 -12 16 07.26314
 2018-Aug-22 08:03  m  14 03 43.151118 -12 16 07.75422
 2018-Aug-22 08:04  m  14 03 43.211852 -12 16 08.24530
 2018-Aug-22 08:05  m  14 03 43.272617 -12 16 08.73637
 2018-Aug-22 08:06  m  14 03 43.333413 -12 16 09.22744
 2018-Aug-22 08:07  m  14 03 43.394240 -12 16 09.71850
 2018-Aug-22 08:08  m  14 03 43.455098 -12 16 10.20955
 2018-Aug-22 08:09  m  14 03 43.515986 -12 16 10.70061
 2018-Aug-22 08:10  m  14 03 43.576905 -12 16 11.19166
 2018-Aug-22 08:11  m  14 03 43.637856 -12 16 11.68270
 2018-Aug-22 08:12  m  14 03 43.698837 -12 16 12.17374
 2018-Aug-22 08:13  m  14 03 43.759849 -12 16 12.66478
 2018-Aug-22 08:14  m  14 03 43.820891 -12 16 13.15582
 2018-Aug-22 08:15  m  14 03 43.881965 -12 16 13.64686
 2018-Aug-22 08:16  m  14 03 43.943070 -12 16 14.13790
 2018-Aug-22 08:17  m  14 03 44.004205 -12 16 14.62893
 2018-Aug-22 08:18  s  14 03 44.065372 -12 16 15.11997
 2018-Aug-22 08:19  m  14 03 44.126569 -12 16 15.61100
 2018-Aug-22 08:20  m  14 03 44.187797 -12 16 16.10204
 2018-Aug-22 08:21  m  14 03 44.249057 -12 16 16.59308
 2018-Aug-22 08:22  m  14 03 44.310347 -12 16 17.08411
 2018-Aug-22 08:23  m  14 03 44.371668 -12 16 17.57515
 2018-Aug-22 08:24  m  14 03 44.433020 -12 16 18.06620
 2018-Aug-22 08:25  m  14 03 44.494403 -12 16 18.55724
 2018-Aug-22 08:26  m  14 03 44.555817 -12 16 19.04829
 2018-Aug-22 08:27  m  14 03 44.617262 -12 16 19.53934
 2018-Aug-22 08:28  m  14 03 44.678738 -12 16 20.03040
 2018-Aug-22 08:29  m  14 03 44.740244 -12 16 20.52146
 2018-Aug-22 08:30  m  14 03 44.801782 -12 16 21.01253
 2018-Aug-22 08:31  m  14 03 44.863351 -12 16 21.50360
 2018-Aug-22 08:32  m  14 03 44.924950 -12 16 21.99467
 2018-Aug-22 08:33  m  14 03 44.986581 -12 16 22.48576
 2018-Aug-22 08:34  m  14 03 45.048242 -12 16 22.97685
 2018-Aug-22 08:35  m  14 03 45.109935 -12 16 23.46794
 2018-Aug-22 08:36  m  14 03 45.171658 -12 16 23.95905
 2018-Aug-22 08:37  m  14 03 45.233412 -12 16 24.45016
 2018-Aug-22 08:38  m  14 03 45.295197 -12 16 24.94128
 2018-Aug-22 08:39  m  14 03 45.357013 -12 16 25.43241
 2018-Aug-22 08:40  m  14 03 45.418860 -12 16 25.92355
 2018-Aug-22 08:41  m  14 03 45.480738 -12 16 26.41469
 2018-Aug-22 08:42  m  14 03 45.542646 -12 16 26.90585
 2018-Aug-22 08:43  m  14 03 45.604586 -12 16 27.39702
 2018-Aug-22 08:44  m  14 03 45.666556 -12 16 27.88820
 2018-Aug-22 08:45  m  14 03 45.728558 -12 16 28.37939
 2018-Aug-22 08:46  m  14 03 45.790590 -12 16 28.87059
 2018-Aug-22 08:47  m  14 03 45.852653 -12 16 29.36180
 2018-Aug-22 08:48  m  14 03 45.914746 -12 16 29.85303
 2018-Aug-22 08:49  m  14 03 45.976871 -12 16 30.34427
 2018-Aug-22 08:50  m  14 03 46.039026 -12 16 30.83552
 2018-Aug-22 08:51  m  14 03 46.101212 -12 16 31.32679
 2018-Aug-22 08:52  m  14 03 46.163429 -12 16 31.81807
 2018-Aug-22 08:53  m  14 03 46.225676 -12 16 32.30936
 2018-Aug-22 08:54  m  14 03 46.287955 -12 16 32.80067
 2018-Aug-22 08:55  m  14 03 46.350264 -12 16 33.29200
 2018-Aug-22 08:56  m  14 03 46.412604 -12 16 33.78334
 2018-Aug-22 08:57  m  14 03 46.474974 -12 16 34.27470
 2018-Aug-22 08:58  m  14 03 46.537375 -12 16 34.76607
 2018-Aug-22 08:59  m  14 03 46.599807 -12 16 35.25747
 2018-Aug-22 09:00  m  14 03 46.662269 -12 16 35.74888
